{"fetched_at":"2026-03-29T16:36:15Z","count":15609,"tles":[{"name":"STARLINK-34770","line1":"1 65036U 25161X   26087.73959106  .00030370  00000+0  10335-2 0  9994","line2":"2 65036  53.1583 205.9145 0001099  71.6937 288.4184 15.30195704 37140","category":"Starlink"}]}